H1 CPF 01  gfz 2022 08 29 12  7412 terrasarx 
H2 0702601  6201 31698    2022 08 29 00 59 42 2022 09 03 00 00 42   120 1 1  0 0 0
H9
10 0 59824   5742.000000  0    2508462.359   6242400.888   1476723.642
10 0 59824   5862.000000  0    2726281.686   6299689.089    582548.501
10 0 59824   5982.000000  0    2896464.233   6243479.079   -321881.850
10 0 59824   6102.000000  0    3014089.419   6075680.820  -1220651.979
10 0 59824   6222.000000  0    3075217.553   5800248.133  -2097964.137
10 0 59824   6342.000000  0    3076992.173   5423085.171  -2938423.023
10 0 59824   6462.000000  0    3017719.907   4951914.232  -3727311.795
10 0 59824   6582.000000  0    2896925.055   4396108.437  -4450851.466
10 0 59824   6702.000000  0    2715378.611   3766496.344  -5096439.091
10 0 59824   6822.000000  0    2475101.845   3075142.760  -5652861.218
10 0 59824   6942.000000  0    2179345.554   2335111.133  -6110480.154
10 0 59824   7062.000000  0    1832544.298   1560212.479  -6461389.956
10 0 59824   7182.000000  0    1440248.546    764747.217  -6699540.788
10 0 59824   7302.000000  0    1009035.946    -36755.714  -6820833.427
10 0 59824   7422.000000  0     546400.923   -829799.733  -6823182.826
10 0 59824   7542.000000  0      60626.234  -1600177.002  -6706548.340
10 0 59824   7662.000000  0    -439361.012  -2334215.295  -6472933.863
10 0 59824   7782.000000  0    -944149.122  -3019015.465  -6126358.988
10 0 59824   7902.000000  0   -1444014.579  -3642675.940  -5672796.641
10 0 59824   8022.000000  0   -1929104.542  -4194498.946  -5120080.473
10 0 59824   8142.000000  0   -2389627.897  -4665178.134  -4477781.973
10 0 59824   8262.000000  0   -2816051.625  -5046962.753  -3757055.368
10 0 59824   8382.000000  0   -3199297.461  -5333793.443  -2970452.586
10 0 59824   8502.000000  0   -3530934.978  -5521407.769  -2131711.298
10 0 59824   8622.000000  0   -3803367.374  -5607412.450  -1255517.952
10 0 59824   8742.000000  0   -4010004.537  -5591319.388   -357249.083
10 0 59824   8862.000000  0   -4145418.100  -5474543.552    547303.755
10 0 59824   8982.000000  0   -4205474.789  -5260362.437   1442219.307
10 0 59824   9102.000000  0   -4187444.237  -4953837.087   2311736.455
10 0 59824   9222.000000  0   -4090077.749  -4561696.514   3140540.617
10 0 59824   9342.000000  0   -3913657.034  -4092189.867   3914040.556
10 0 59824   9462.000000  0   -3660011.373  -3554909.654   4618630.844
10 0 59824   9582.000000  0   -3332502.553  -2960589.735   5241933.189
10 0 59824   9702.000000  0   -2935979.325  -2320885.286   5773011.988
10 0 59824   9822.000000  0   -2476702.424  -1648140.307   6202562.602
10 0 59824   9942.000000  0   -1962242.201   -955146.051   6523070.519
10 0 59824  10062.000000  0   -1401349.163   -254893.944   6728937.657
10 0 59824  10182.000000  0    -803801.868    439668.435   6816571.638
10 0 59824  10302.000000  0    -180236.830   1115875.080   6784444.550
10 0 59824  10422.000000  0     458040.514   1761572.118   6633118.431
10 0 59824  10542.000000  0    1099260.441   2365336.310   6365236.004
10 0 59824  10662.000000  0    1731405.200   2916676.858   5985476.676
10 0 59824  10782.000000  0    2342433.363   3406218.956   5500480.464
10 0 59824  10902.000000  0    2920510.132   3825867.218   4918738.843
10 0 59824  11022.000000  0    3454239.511   4168944.267   4250450.823
10 0 59824  11142.000000  0    3932890.649   4430300.735   3507348.755
10 0 59824  11262.000000  0    4346618.620   4606398.827   2702497.082
10 0 59824  11382.000000  0    4686672.591   4695361.816   1850059.269
10 0 59824  11502.000000  0    4945581.504   4696990.602    965045.680
10 0 59824  11622.000000  0    5117320.545   4612746.403     63043.144
10 0 59824  11742.000000  0    5197447.203   4445698.266   -840069.590
10 0 59824  11862.000000  0    5183204.655   4200437.567  -1728409.863
10 0 59824  11982.000000  0    5073592.333   3882962.515  -2586377.814
10 0 59824  12102.000000  0    4869401.065   3500535.312  -3398936.117
10 0 59824  12222.000000  0    4573211.657   3061516.871  -4151876.477
10 0 59824  12342.000000  0    4189357.730   2575182.876  -4832068.076
10 0 59824  12462.000000  0    3723854.983   2051524.951  -5427682.094
10 0 59824  12582.000000  0    3184299.199   1501043.570  -5928389.537
10 0 59824  12702.000000  0    2579734.846    934537.377  -6325530.497
10 0 59824  12822.000000  0    1920498.106    362892.682  -6612252.012
10 0 59824  12942.000000  0    1218039.133   -203122.047  -6783614.795
10 0 59824  13062.000000  0     484724.616   -753055.000  -6836671.092
10 0 59824  13182.000000  0    -266377.585  -1276959.677  -6770508.475
10 0 59824  13302.000000  0   -1021725.083  -1765569.368  -6586263.021
10 0 59824  13422.000000  0   -1767539.276  -2210457.252  -6287103.067
10 0 59824  13542.000000  0   -2490051.237  -2604179.941  -5878180.184
10 0 59824  13662.000000  0   -3175750.729  -2940401.255  -5366549.802
10 0 59824  13782.000000  0   -3811637.478  -3213996.547  -4761062.002
10 0 59824  13902.000000  0   -4385469.811  -3421134.415  -4072219.221
10 0 59824  14022.000000  0   -4886004.208  -3559333.061  -3312004.021
10 0 59824  14142.000000  0   -5303222.238  -3627490.962  -2493678.469
10 0 59824  14262.000000  0   -5628538.976  -3625890.196  -1631556.671
10 0 59824  14382.000000  0   -5854986.916  -3556171.442   -740754.685
10 0 59824  14502.000000  0   -5977371.122  -3421281.260    163077.685
10 0 59824  14622.000000  0   -5992391.233  -3225392.404   1064037.929
10 0 59824  14742.000000  0   -5898725.973  -2973798.746   1946260.276
10 0 59824  14862.000000  0   -5697075.883  -2672786.192   2794204.834
10 0 59824  14982.000000  0   -5390165.836  -2329484.999   3592938.659
10 0 59824  15102.000000  0   -4982706.867  -1951706.517   4328406.284
10 0 59824  15222.000000  0   -4481316.474  -1547767.160   4987680.197
10 0 59824  15342.000000  0   -3894403.299  -1126307.201   5559186.786
10 0 59824  15462.000000  0   -3232019.151   -696107.597   6032907.316
10 0 59824  15582.000000  0   -2505679.233   -265907.192   6400550.342
10 0 59824  15702.000000  0   -1728154.417    155774.397   6655690.569
10 0 59824  15822.000000  0    -913242.406    560803.354   6793873.905
10 0 59824  15942.000000  0     -75521.707    941586.926   6812690.289
10 0 59824  16062.000000  0     769908.771   1291214.836   6711812.814
10 0 59824  16182.000000  0    1607700.902   1603584.735   6493003.208
10 0 59824  16302.000000  0    2422535.082   1873508.920   6160082.493
10 0 59824  16422.000000  0    3199399.976   2096800.751   5718869.008
10 0 59824  16542.000000  0    3923871.699   2270340.194   5177082.779
10 0 59824  16662.000000  0    4582384.944   2392117.037   4544216.087
10 0 59824  16782.000000  0    5162492.542   2461251.980   3831373.986
10 0 59824  16902.000000  0    5653111.461   2477993.666   3051082.884
10 0 59824  17022.000000  0    6044741.677   2443690.390   2217068.693
10 0 59824  17142.000000  0    6329658.384   2360739.855   1344014.737
10 0 59824  17262.000000  0    6502071.887   2232515.589    447297.265
10 0 59824  17382.000000  0    6558248.706   2063272.626   -457293.595
10 0 59824  17502.000000  0    6496589.879   1858034.870  -1353841.527
10 0 59824  17622.000000  0    6317667.312   1622466.763  -2226590.575
10 0 59824  17742.000000  0    6024219.165   1362732.998  -3060229.614
10 0 59824  17862.000000  0    5621099.046   1085349.083  -3840166.276
10 0 59824  17982.000000  0    5115183.986    797027.639  -4552783.659
10 0 59824  18102.000000  0    4515243.805    504524.651  -5185674.872
10 0 59824  18222.000000  0    3831777.719    214488.877  -5727851.717
10 0 59824  18342.000000  0    3076821.591    -66681.835  -6169926.244
10 0 59824  18462.000000  0    2263728.923   -332974.871  -6504262.957
10 0 59824  18582.000000  0    1406931.989   -578885.666  -6725098.476
10 0 59824  18702.000000  0     521687.513   -799526.725  -6828631.865
10 0 59824  18822.000000  0    -376192.149   -990720.696  -6813082.776
10 0 59824  18942.000000  0   -1270614.668  -1149076.521  -6678717.785
10 0 59824  19062.000000  0   -2145489.471  -1272048.166  -6427847.074
10 0 59824  19182.000000  0   -2985011.081  -1357974.736  -6064788.031
10 0 59824  19302.000000  0   -3773938.185  -1406101.708  -5595798.853
10 0 59824  19422.000000  0   -4497869.416  -1416583.499  -5028982.899
10 0 59824  19542.000000  0   -5143509.207  -1390466.287  -4374159.721
10 0 59824  19662.000000  0   -5698917.729  -1329651.587  -3642705.970
10 0 59824  19782.000000  0   -6153741.593  -1236841.106  -2847366.941
10 0 59824  19902.000000  0   -6499418.642  -1115463.413  -2002039.805
10 0 59824  20022.000000  0   -6729351.312   -969583.879  -1121532.749
10 0 59824  20142.000000  0   -6839044.687   -803799.932   -221303.474
10 0 59824  20262.000000  0   -6826203.379   -623122.637    682818.349
10 0 59824  20382.000000  0   -6690784.603   -432849.286   1574916.741
10 0 59824  20502.000000  0   -6435006.386   -238430.259   2439278.743
10 0 59824  20622.000000  0   -6063309.841    -45332.618   3260680.148
10 0 59824  20742.000000  0   -5582276.183    141095.802   4024661.457
10 0 59824  20862.000000  0   -5000501.039    315757.754   4717787.192
10 0 59824  20982.000000  0   -4328430.295    473930.205   5327883.250
10 0 59824  21102.000000  0   -3578162.906    611378.098   5844248.522
10 0 59824  21222.000000  0   -2763224.202    724454.782   6257839.267
10 0 59824  21342.000000  0   -1898314.698    810186.976   6561422.264
10 0 59824  21462.000000  0    -999039.268    866344.049   6749695.676
10 0 59824  21582.000000  0     -81622.937    891489.197   6819374.769
10 0 59824  21702.000000  0     837381.420    885011.757   6769244.947
10 0 59824  21822.000000  0    1741390.390    847140.778   6600181.555
10 0 59824  21942.000000  0    2614088.062    778939.397   6315135.728
10 0 59824  22062.000000  0    3439720.410    682279.815   5919086.946
10 0 59824  22182.000000  0    4203382.221    559799.420   5418961.084
99
